     2.11           N: GPS NAV DATA                         RINEX VERSION / TYPE
teqc  2019Feb25                         20221121 12:25:20UTCPGM / RUN BY / DATE
OSX ker:10.11.6|Core i5|gcc 4.3 -m64|OSX ker:10.10+|=+      COMMENT
    4.6566D-09  1.4901D-08 -5.9605D-08 -1.1921D-07          ION ALPHA
    7.9872D+04  8.1920D+04 -6.5536D+04 -4.5875D+05          ION BETA
   -2.793967723846D-09-1.332267629550D-14    61440     1541 DELTA-UTC: A0,A1,T,W
                                                            END OF HEADER
32 09  7 18 16  0  0.0 2.299579791725D-04-6.139089236967D-12 0.000000000000D+00
    1.010000000000D+02 1.548125000000D+02 4.158030341511D-09-3.042796574542D+00
    7.729977369308D-06 1.322489697486D-02 7.510185241699D-06 5.153781328201D+03
    5.760000000000D+05 1.210719347000D-07-1.435393992436D-01 1.806765794754D-07
    9.636066028143D-01 2.286875000000D+02-1.142686569825D+00-7.728893368003D-09
    1.617924535908D-10 1.000000000000D+00 1.540000000000D+03 0.000000000000D+00
    2.800000000000D+00 0.000000000000D+00-3.259629011154D-09 1.010000000000D+02
    5.688180000000D+05 4.000000000000D+00
31 09  7 18 16  0  0.0-6.393948569894D-05-4.547473508865D-13 0.000000000000D+00
    1.080000000000D+02-1.416250000000D+02 4.281249759808D-09 2.302037021516D+00
   -7.104128599167D-06 6.984930485487D-03 5.576759576797D-06 5.153756391525D+03
    5.760000000000D+05 1.341104507446D-07 1.864357887292D+00-5.215406417847D-08
    9.732215119310D-01 2.743125000000D+02-1.136788704407D+00-7.955688529218D-09
   -2.700112470522D-10 1.000000000000D+00 1.540000000000D+03 0.000000000000D+00
    2.800000000000D+00 0.000000000000D+00-1.303851604462D-08 1.080000000000D+02
    5.702220000000D+05 4.000000000000D+00
31 09  7 18 15 59 44.0-6.393902003765D-05-4.547473508865D-13 0.000000000000D+00
    1.600000000000D+01-1.416250000000D+02 4.281964075277D-09 2.299703162473D+00
   -7.105991244316D-06 6.984933628701D-03 5.576759576797D-06 5.153756389618D+03
    5.759840000000D+05 1.341104507446D-07 1.864357977993D+00-5.401670932770D-08
    9.732214782838D-01 2.743125000000D+02-1.136788376713D+00-7.956045686952D-09
   -2.696540893180D-10 1.000000000000D+00 1.540000000000D+03 0.000000000000D+00
    2.000000000000D+00 0.000000000000D+00-1.303851604462D-08 1.600000000000D+01
    5.704560000000D+05 4.000000000000D+00
32 09  7 18 15 59 44.0 2.299533225596D-04-6.139089236967D-12 0.000000000000D+00
    4.000000000000D+00 1.548125000000D+02 4.157316026042D-09-3.045130035672D+00
    7.728114724159D-06 1.322490070015D-02 7.510185241699D-06 5.153781332016D+03
    5.759840000000D+05 1.210719347000D-07-1.435392822101D-01 1.806765794754D-07
    9.636066408501D-01 2.286875000000D+02-1.142686730746D+00-7.728536210269D-09
    1.621496113250D-10 1.000000000000D+00 1.540000000000D+03 0.000000000000D+00
    2.000000000000D+00 0.000000000000D+00-3.259629011154D-09 4.000000000000D+00
    5.704980000000D+05 4.000000000000D+00
20 09  7 18 16  0  0.0 7.701199501753D-05-1.023181539495D-12 0.000000000000D+00
    2.800000000000D+01 1.292500000000D+02 4.655193907512D-09 4.210767314903D-01
    6.407499313355D-06 3.853631205857D-03 8.841976523399D-06 5.153579721451D+03
    5.760000000000D+05-4.097819328308D-08-2.541288918655D-01-1.303851604462D-08
    9.415494993617D-01 1.962500000000D+02 1.369241094365D+00-8.199270103940D-09
    2.714398779890D-11 1.000000000000D+00 1.540000000000D+03 0.000000000000D+00
    2.000000000000D+00 0.000000000000D+00-6.519258022308D-09 2.800000000000D+01
    5.709180000000D+05 4.000000000000D+00
 4 09  7 18 16  0  0.0-1.803911291063D-04-1.648459146963D-11 0.000000000000D+00
    4.900000000000D+01 7.406250000000D+00 4.856988027333D-09 7.594975747740D-01
    5.904585123062D-07 8.615163387731D-03 8.851289749146D-06 5.153768003464D+03
    5.760000000000D+05-1.639127731323D-07-1.271249181385D+00 2.291053533554D-07
    9.398720267910D-01 1.981250000000D+02 4.953014658541D-01-8.089979837276D-09
   -5.207359764579D-10 1.000000000000D+00 1.540000000000D+03 0.000000000000D+00
    2.000000000000D+00 0.000000000000D+00-6.053596735001D-09 4.900000000000D+01
    5.743920000000D+05 4.000000000000D+00
30 09  7 18 18  0  0.0 1.619770191610D-04 2.955857780762D-12 0.000000000000D+00
    6.100000000000D+01-6.025000000000D+01 4.664480008601D-09 1.027499672811D+00
   -3.224238753319D-06 1.166801678482D-02 1.065991818905D-05 5.153574125290D+03
    5.832000000000D+05-2.644956111908D-07 2.870007367395D+00-8.754432201386D-08
    9.529314482084D-01 1.743125000000D+02 1.428140350132D+00-8.086051102199D-09
    3.164417524977D-10 1.000000000000D+00 1.540000000000D+03 0.000000000000D+00
    2.000000000000D+00 0.000000000000D+00-8.381903171539D-09 6.100000000000D+01
    5.760180000000D+05 4.000000000000D+00
14 09  7 18 18  0  0.0-7.813749834895D-05 5.570655048359D-12 0.000000000000D+00
    8.700000000000D+01 2.243750000000D+01 4.201246427349D-09-5.223352922644D-01
    1.328065991402D-06 4.642862477340D-03 1.287087798119D-06 5.153623994827D+03
    5.832000000000D+05-1.490116119385D-08 8.573428111980D-01 2.607703208923D-08
    9.882190891431D-01 3.714375000000D+02-2.167172328569D+00-8.187841056445D-09
    1.703642392115D-10 1.000000000000D+00 1.540000000000D+03 0.000000000000D+00
    2.000000000000D+00 0.000000000000D+00-9.313225746155D-09 8.700000000000D+01
    5.760180000000D+05 4.000000000000D+00
12 09  7 18 18  0  0.0-2.485937438905D-04 6.139089236967D-12 0.000000000000D+00
    3.900000000000D+01-5.678125000000D+01 4.200532111880D-09-2.751876513057D+00
   -3.032386302948D-06 3.230721340515D-03 1.038424670696D-05 5.153623474121D+03
    5.832000000000D+05-6.146728992462D-08 2.918590423303D+00 1.117587089539D-08
    9.678610245994D-01 1.820000000000D+02-6.345150368182D-01-7.637460988049D-09
    3.407284784231D-10 1.000000000000D+00 1.540000000000D+03 0.000000000000D+00
    2.000000000000D+00 0.000000000000D+00-1.164153218269D-08 3.900000000000D+01
    5.760180000000D+05 4.000000000000D+00
32 09  7 18 17 59 44.0 2.299090847373D-04-6.139089236967D-12 0.000000000000D+00
    9.000000000000D+00 1.508125000000D+02 3.998023676591D-09-1.994920837443D+00
    8.119270205498D-06 1.322420209181D-02 7.273629307747D-06 5.153783737183D+03
    5.831840000000D+05-1.303851604462D-08-1.435949140588D-01 2.887099981308D-07
    9.636073840125D-01 2.419687500000D+02-1.142784032353D+00-7.831754795452D-09
    1.492919328940D-10 1.000000000000D+00 1.540000000000D+03 0.000000000000D+00
    2.000000000000D+00 0.000000000000D+00-3.259629011154D-09 9.000000000000D+00
    5.760180000000D+05 4.000000000000D+00
31 09  7 18 18  0  0.0-6.394227966666D-05-4.547473508865D-13 0.000000000000D+00
    1.700000000000D+01-1.310312500000D+02 4.320179952836D-09-2.931076781673D+00
   -6.597489118576D-06 6.985798012465D-03 5.587935447693D-06 5.153755079269D+03
    5.832000000000D+05 3.166496753693D-08 1.864299603173D+00 1.713633537292D-07
    9.732203123381D-01 2.768437500000D+02-1.136731140043D+00-7.922830017672D-09
   -7.214586230761D-11 1.000000000000D+00 1.540000000000D+03 0.000000000000D+00
    2.000000000000D+00 0.000000000000D+00-1.303851604462D-08 1.700000000000D+01
    5.760180000000D+05 4.000000000000D+00
 4 09  7 18 18  0  0.0-1.805098727345D-04-1.648459146963D-11 0.000000000000D+00
    5.100000000000D+01 8.937500000000D+00 4.920204946285D-09 1.809585295211D+00
    5.085021257401D-07 8.615467231721D-03 9.287148714066D-06 5.153768747330D+03
    5.832000000000D+05-1.378357410431D-07-1.271306565810D+00-2.421438694000D-08
    9.398673791003D-01 1.941562500000D+02 4.953386166588D-01-8.098551622896D-09
   -7.007434744927D-10 1.000000000000D+00 1.540000000000D+03 0.000000000000D+00
    2.000000000000D+00 0.000000000000D+00-6.053596735001D-09 5.100000000000D+01
    5.760180000000D+05 4.000000000000D+00
20 09  7 18 18  0  0.0 7.700501009822D-05-1.023181539495D-12 0.000000000000D+00
    2.900000000000D+01 1.393125000000D+02 4.596620039104D-09 1.471562305665D+00
    7.204711437225D-06 3.852441324852D-03 8.447095751762D-06 5.153576965332D+03
    5.832000000000D+05-4.097819328308D-08-2.541880274031D-01-9.499490261078D-08
    9.415499133675D-01 2.032500000000D+02 1.368996177009D+00-8.147482232481D-09
    5.035924052165D-11 1.000000000000D+00 1.540000000000D+03 0.000000000000D+00
    2.000000000000D+00 0.000000000000D+00-6.519258022308D-09 2.900000000000D+01
    5.760180000000D+05 4.000000000000D+00
29 09  7 18 18  0  0.0 4.063546657562D-05 3.410605131648D-12 0.000000000000D+00
    4.900000000000D+01 5.312500000000D+00 4.854845080927D-09 2.576373301752D+00
    2.942979335785D-07 3.341984935105D-03 6.146728992462D-06 5.153636713028D+03
    5.832000000000D+05 7.078051567078D-08-2.297333192760D+00-1.117587089539D-08
    9.599457293185D-01 2.581875000000D+02-1.298330865698D+00-8.014619555360D-09
    6.785996949726D-12 1.000000000000D+00 1.540000000000D+03 0.000000000000D+00
    2.000000000000D+00 0.000000000000D+00-8.847564458847D-09 4.900000000000D+01
    5.760720000000D+05 4.000000000000D+00
 2 09  7 18 18  0  0.0 1.606070436537D-04 1.818989403546D-12 0.000000000000D+00
    2.700000000000D+01 2.312500000000D+00 4.865202655219D-09-1.060583951384D+00
    1.769512891769D-07 9.069031570107D-03 8.875504136086D-06 5.153677646637D+03
    5.832000000000D+05-1.732259988785D-07-1.289622155333D+00-2.440065145493D-07
    9.406598783968D-01 2.008750000000D+02 2.865408242612D+00-8.042120700893D-09
   -4.760912596834D-10 1.000000000000D+00 1.540000000000D+03 0.000000000000D+00
    2.000000000000D+00 0.000000000000D+00-1.722946763039D-08 2.700000000000D+01
    5.770620000000D+05 4.000000000000D+00
